STARLINK-3685           
1 52115U 22029AD  26068.26940975  .00001377  00000+0  10459-3 0  9992
2 52115  53.2174  81.0082 0001334  90.6968 269.4177 15.08831450220720
PRSC-S1                 
1 65055U 25164A   26068.60758212  .00007316  00000+0  46631-3 0  9991
2 65055  41.1290 129.3637 0004466 348.3012  11.7698 15.08919510 33403
